[{"OBJECT_NAME":"ASTROCAST-0401","OBJECT_ID":"2023-001DF","EPOCH":"2026-03-09T17:04:53.382144","MEAN_MOTION":15.26258462,"ECCENTRICITY":0.00081423,"INCLINATION":97.5547,"RA_OF_ASC_NODE":160.5206,"ARG_OF_PERICENTER":188.4231,"MEAN_ANOMALY":171.6872,"EPHEMERIS_TYPE":0,"CLASSIFICATION_TYPE":"U","NORAD_CAT_ID":55110,"ELEMENT_SET_NO":999,"REV_AT_EPOCH":17602,"BSTAR":0.00037868349,"MEAN_MOTION_DOT":9.75e-5,"MEAN_MOTION_DDOT":0},{"OBJECT_NAME":"STARLINK-31208","OBJECT_ID":"2024-038Q","EPOCH":"2026-03-08T21:56:06.234720","MEAN_MOTION":15.27576868,"ECCENTRICITY":0.00011699,"INCLINATION":43.0025,"RA_OF_ASC_NODE":31.8631,"ARG_OF_PERICENTER":253.0933,"MEAN_ANOMALY":106.979,"EPHEMERIS_TYPE":0,"CLASSIFICATION_TYPE":"U","NORAD_CAT_ID":59037,"ELEMENT_SET_NO":999,"REV_AT_EPOCH":11469,"BSTAR":-2.4145218e-5,"MEAN_MOTION_DOT":-9.26e-6,"MEAN_MOTION_DDOT":0}]
